{"type": "FeatureCollection", "features": [ {"type": "Feature", "properties": {"norad_id": 52912, "name": "GAOFEN-12 03", "group": "resource", "lat": 81.87060917618982, "lon": 171.30250548520016, "alt_km": 622.0035232800492, "timestamp": "2025-12-25T03:55:55.964165+00:00", "meta": {"OBJECT_NAME": "GAOFEN-12 03", "OBJECT_ID": "2022-069A", "EPOCH": "2025-12-24T21:02:40.553664", "MEAN_MOTION": 14.79638691, "ECCENTRICITY": 0.0001828, "INCLINATION": 97.8479, "RA_OF_ASC_NODE": 245.9455, "ARG_OF_PERICENTER": 50.117, "MEAN_ANOMALY": 310.0203, "EPHEMERIS_TYPE": 0, "CLASSIFICATION_TYPE": "U", "NORAD_CAT_ID": 52912, "ELEMENT_SET_NO": 999, "REV_AT_EPOCH": 18883, "BSTAR": 0.00022181, "MEAN_MOTION_DOT": 1.613e-05, "MEAN_MOTION_DDOT": 0}, "tle": {"line1": "1 52912U 22069A   25358.87685826  .00001613  00000+0  22181-3 0  9998", "line2": "2 52912  97.8479 245.9455 0001828  50.1170 310.0203 14.79638691188833"}}, "geometry": {"type": "Point", "coordinates": [171.30250548520016, 81.87060917618982]}}, {"type": "Feature", "properties": {"norad_id": 54754, "name": "SWOT", "group": "resource", "lat": 57.82470700123678, "lon": 69.76993842341462, "alt_km": 887.2242574950988, "timestamp": "2025-12-25T03:55:55.964175+00:00", "meta": {"OBJECT_NAME": "SWOT", "OBJECT_ID": "2022-173A", "EPOCH": "2025-12-24T20:30:07.652736", "MEAN_MOTION": 14.00168631, "ECCENTRICITY": 4.14e-05, "INCLINATION": 77.6108, "RA_OF_ASC_NODE": 270.6369, "ARG_OF_PERICENTER": 82.1506, "MEAN_ANOMALY": 277.9693, "EPHEMERIS_TYPE": 0, "CLASSIFICATION_TYPE": "U", "NORAD_CAT_ID": 54754, "ELEMENT_SET_NO": 999, "REV_AT_EPOCH": 15475, "BSTAR": 6.9887e-05, "MEAN_MOTION_DOT": 1.01e-06, "MEAN_MOTION_DDOT": 0}, "tle": {"line1": "1 54754U 22173A   25358.85425524  .00000101  00000+0  69887-4 0  9991", "line2": "2 54754  77.6108 270.6369 0000414  82.1506 277.9693 14.00168631154755"}}, "geometry": {"type": "Point", "coordinates": [69.76993842341462, 57.82470700123678]}}, {"type": "Feature", "properties": {"norad_id": 57654, "name": "GAOFEN-12 04", "group": "resource", "lat": -78.59709879118255, "lon": 51.13503905164995, "alt_km": 638.348641582972, "timestamp": "2025-12-25T03:55:55.964208+00:00", "meta": {"OBJECT_NAME": "GAOFEN-12 04", "OBJECT_ID": "2023-123A", "EPOCH": "2025-12-24T20:15:40.441248", "MEAN_MOTION": 14.79733584, "ECCENTRICITY": 0.0001204, "INCLINATION": 97.9128, "RA_OF_ASC_NODE": 274.4182, "ARG_OF_PERICENTER": 79.7323, "MEAN_ANOMALY": 280.4025, "EPHEMERIS_TYPE": 0, "CLASSIFICATION_TYPE": "U", "NORAD_CAT_ID": 57654, "ELEMENT_SET_NO": 999, "REV_AT_EPOCH": 12684, "BSTAR": 0.00018655, "MEAN_MOTION_DOT": 1.351e-05, "MEAN_MOTION_DDOT": 0}, "tle": {"line1": "1 57654U 23123A   25358.84421807  .00001351  00000+0  18655-3 0  9992", "line2": "2 57654  97.9128 274.4182 0001204  79.7323 280.4025 14.79733584126844"}}, "geometry": {"type": "Point", "coordinates": [51.13503905164995, -78.59709879118255]}}, {"type": "Feature", "properties": {"norad_id": 59065, "name": "PARS 1", "group": "resource", "lat": 19.79149369850929, "lon": 153.06771440295162, "alt_km": 447.24024732803264, "timestamp": "2025-12-25T03:55:55.964220+00:00", "meta": {"OBJECT_NAME": "PARS 1", "OBJECT_ID": "2024-039Q", "EPOCH": "2025-12-24T21:00:30.975264", "MEAN_MOTION": 15.41245596, "ECCENTRICITY": 0.0011583, "INCLINATION": 97.4654, "RA_OF_ASC_NODE": 330.0682, "ARG_OF_PERICENTER": 35.1778, "MEAN_ANOMALY": 325.023, "EPHEMERIS_TYPE": 0, "CLASSIFICATION_TYPE": "U", "NORAD_CAT_ID": 59065, "ELEMENT_SET_NO": 999, "REV_AT_EPOCH": 10175, "BSTAR": 0.00030492, "MEAN_MOTION_DOT": 0.00012622, "MEAN_MOTION_DDOT": 0}, "tle": {"line1": "1 59065U 24039Q   25358.87535851  .00012622  00000+0  30492-3 0  9991", "line2": "2 59065  97.4654 330.0682 0011583  35.1778 325.0230 15.41245596101754"}}, "geometry": {"type": "Point", "coordinates": [153.06771440295162, 19.79149369850929]}}, {"type": "Feature", "properties": {"norad_id": 59371, "name": "RESURS-P 4", "group": "resource", "lat": -78.29300199865862, "lon": 87.29560193609407, "alt_km": 477.1792855987869, "timestamp": "2025-12-25T03:55:55.964231+00:00", "meta": {"OBJECT_NAME": "RESURS-P 4", "OBJECT_ID": "2024-061A", "EPOCH": "2025-12-24T20:31:40.199232", "MEAN_MOTION": 15.3219141, "ECCENTRICITY": 8.03e-05, "INCLINATION": 97.2564, "RA_OF_ASC_NODE": 304.9384, "ARG_OF_PERICENTER": 79.2125, "MEAN_ANOMALY": 280.9208, "EPHEMERIS_TYPE": 0, "CLASSIFICATION_TYPE": "U", "NORAD_CAT_ID": 59371, "ELEMENT_SET_NO": 999, "REV_AT_EPOCH": 9706, "BSTAR": 0.00013524, "MEAN_MOTION_DOT": 4.127e-05, "MEAN_MOTION_DDOT": 0}, "tle": {"line1": "1 59371U 24061A   25358.85532638  .00004127  00000+0  13524-3 0  9992", "line2": "2 59371  97.2564 304.9384 0000803  79.2125 280.9208 15.32191410 97066"}}, "geometry": {"type": "Point", "coordinates": [87.29560193609407, -78.29300199865862]}}, {"type": "Feature", "properties": {"norad_id": 59625, "name": "LEGION 1", "group": "resource", "lat": 30.07195949479216, "lon": -101.91733684524617, "alt_km": 515.5228071117608, "timestamp": "2025-12-25T03:55:55.964242+00:00", "meta": {"OBJECT_NAME": "LEGION 1", "OBJECT_ID": "2024-081A", "EPOCH": "2025-12-24T19:21:25.788672", "MEAN_MOTION": 15.16595325, "ECCENTRICITY": 0.0003599, "INCLINATION": 97.5196, "RA_OF_ASC_NODE": 73.3419, "ARG_OF_PERICENTER": 261.0907, "MEAN_ANOMALY": 98.9918, "EPHEMERIS_TYPE": 0, "CLASSIFICATION_TYPE": "U", "NORAD_CAT_ID": 59625, "ELEMENT_SET_NO": 999, "REV_AT_EPOCH": 9110, "BSTAR": 0.00025911, "MEAN_MOTION_DOT": 4.995e-05, "MEAN_MOTION_DDOT": 0}, "tle": {"line1": "1 59625U 24081A   25358.80654848  .00004995  00000+0  25911-3 0  9995", "line2": "2 59625  97.5196  73.3419 0003599 261.0907  98.9918 15.16595325 91101"}}, "geometry": {"type": "Point", "coordinates": [-101.91733684524617, 30.07195949479216]}}, {"type": "Feature", "properties": {"norad_id": 59626, "name": "LEGION 2", "group": "resource", "lat": -29.847003734775676, "lon": 78.13116155266799, "alt_km": 522.096588642381, "timestamp": "2025-12-25T03:55:55.964253+00:00", "meta": {"OBJECT_NAME": "LEGION 2", "OBJECT_ID": "2024-081B", "EPOCH": "2025-12-24T18:33:50.177088", "MEAN_MOTION": 15.16607135, "ECCENTRICITY": 0.000578, "INCLINATION": 97.5198, "RA_OF_ASC_NODE": 73.3972, "ARG_OF_PERICENTER": 241.4574, "MEAN_ANOMALY": 118.6078, "EPHEMERIS_TYPE": 0, "CLASSIFICATION_TYPE": "U", "NORAD_CAT_ID": 59626, "ELEMENT_SET_NO": 999, "REV_AT_EPOCH": 9110, "BSTAR": 0.00027852, "MEAN_MOTION_DOT": 5.377e-05, "MEAN_MOTION_DDOT": 0}, "tle": {"line1": "1 59626U 24081B   25358.77349742  .00005377  00000+0  27852-3 0  9997", "line2": "2 59626  97.5198  73.3972 0005780 241.4574 118.6078 15.16607135 91104"}}, "geometry": {"type": "Point", "coordinates": [78.13116155266799, -29.847003734775676]}}, {"type": "Feature", "properties": {"norad_id": 60182, "name": "ALOS-4 (DAICHI-4)", "group": "resource", "lat": 47.90521749212915, "lon": -77.29938770336025, "alt_km": 625.9262758698169, "timestamp": "2025-12-25T03:55:55.964263+00:00", "meta": {"OBJECT_NAME": "ALOS-4 (DAICHI-4)", "OBJECT_ID": "2024-123A", "EPOCH": "2025-12-24T09:29:07.451232", "MEAN_MOTION": 14.79477942, "ECCENTRICITY": 0.0001332, "INCLINATION": 97.9223, "RA_OF_ASC_NODE": 93.0761, "ARG_OF_PERICENTER": 100.4362, "MEAN_ANOMALY": 259.7, "EPHEMERIS_TYPE": 0, "CLASSIFICATION_TYPE": "U", "NORAD_CAT_ID": 60182, "ELEMENT_SET_NO": 999, "REV_AT_EPOCH": 8003, "BSTAR": 0.00024039, "MEAN_MOTION_DOT": 1.744e-05, "MEAN_MOTION_DDOT": 0}, "tle": {"line1": "1 60182U 24123A   25358.39522513  .00001744  00000+0  24039-3 0  9998", "line2": "2 60182  97.9223  93.0761 0001332 100.4362 259.7000 14.79477942 80030"}}, "geometry": {"type": "Point", "coordinates": [-77.29938770336025, 47.90521749212915]}}, {"type": "Feature", "properties": {"norad_id": 60452, "name": "LEGION 3", "group": "resource", "lat": 44.22955169317749, "lon": -13.417108116304075, "alt_km": 522.0416304558612, "timestamp": "2025-12-25T03:55:55.964274+00:00", "meta": {"OBJECT_NAME": "LEGION 3", "OBJECT_ID": "2024-146A", "EPOCH": "2025-12-24T19:35:14.597088", "MEAN_MOTION": 15.15879755, "ECCENTRICITY": 0.0015735, "INCLINATION": 45.0001, "RA_OF_ASC_NODE": 245.3882, "ARG_OF_PERICENTER": 263.0242, "MEAN_ANOMALY": 96.8847, "EPHEMERIS_TYPE": 0, "CLASSIFICATION_TYPE": "U", "NORAD_CAT_ID": 60452, "ELEMENT_SET_NO": 999, "REV_AT_EPOCH": 7556, "BSTAR": 0.00027807, "MEAN_MOTION_DOT": 5.166e-05, "MEAN_MOTION_DDOT": 0}, "tle": {"line1": "1 60452U 24146A   25358.81614117  .00005166  00000+0  27807-3 0  9990", "line2": "2 60452  45.0001 245.3882 0015735 263.0242  96.8847 15.15879755 75569"}}, "geometry": {"type": "Point", "coordinates": [-13.417108116304075, 44.22955169317749]}}, {"type": "Feature", "properties": {"norad_id": 60453, "name": "LEGION 4", "group": "resource", "lat": 44.32309781995215, "lon": 77.89456814157725, "alt_km": 510.1926669327413, "timestamp": "2025-12-25T03:55:55.964285+00:00", "meta": {"OBJECT_NAME": "LEGION 4", "OBJECT_ID": "2024-146B", "EPOCH": "2025-12-24T19:35:26.936736", "MEAN_MOTION": 15.15951122, "ECCENTRICITY": 0.0008151, "INCLINATION": 45.0396, "RA_OF_ASC_NODE": 337.1732, "ARG_OF_PERICENTER": 18.3144, "MEAN_ANOMALY": 341.8028, "EPHEMERIS_TYPE": 0, "CLASSIFICATION_TYPE": "U", "NORAD_CAT_ID": 60453, "ELEMENT_SET_NO": 999, "REV_AT_EPOCH": 7441, "BSTAR": 0.00034448, "MEAN_MOTION_DOT": 6.465e-05, "MEAN_MOTION_DDOT": 0}, "tle": {"line1": "1 60453U 24146B   25358.81628399  .00006465  00000+0  34448-3 0  9990", "line2": "2 60453  45.0396 337.1732 0008151  18.3144 341.8028 15.15951122 74413"}}, "geometry": {"type": "Point", "coordinates": [77.89456814157725, 44.32309781995215]}}]}